ONEWEB-0306             
1 49188U 21083C   24015.41008690  .00000134  00000+0  30625-3 0  9990
2 49188  87.9235 151.2969 0001360 112.4774 247.6502 13.18686263113549
ONEWEB-0307             
1 49189U 21083D   24015.34707723 -.00000041  00000+0 -14839-3 0  9994
2 49189  87.9017 136.1694 0001586 104.8322 255.2983 13.13470083114904
ONEWEB-0320             
1 49190U 21083E   24015.41640395  .00000153  00000+0  35496-3 0  9999
2 49190  87.9239 151.3181 0001542  98.1046 262.0261 13.18688142113504
ONEWEB-0321             
1 49191U 21083F   24015.27068694  .00000044  00000+0  75639-4 0  9993
2 49191  87.9184  90.3887 0002084 104.2054 255.9311 13.20770766120152
ONEWEB-0322             
1 49192U 21083G   24015.79938026  .00000035  00000+0  60961-4 0  9998
2 49192  87.9017 136.0686 0002094 100.8513 259.2852 13.13468389116245
ONEWEB-0324             
1 49193U 21083H   24015.78154745  .00000051  00000+0  96195-4 0  9992
2 49193  87.9237 151.2287 0001499  88.0240 272.1063 13.18688065114851
ONEWEB-0325             
1 49194U 21083J   24015.40691525 -.00000483  00000+0 -12570-2 0  9998
2 49194  87.9239 151.3149 0001548 101.8457 258.2849 13.18684431113535
ONEWEB-0326             
1 49195U 21083K   24015.42115184  .00000093  00000+0  20374-3 0  9990
2 49195  87.9236 151.3149 0000863  88.4633 271.6598 13.18684745113525
